[{"OBJECT_NAME":"KUIPER-00047","OBJECT_ID":"2025-134H","EPOCH":"2026-03-09T17:02:43.762272","MEAN_MOTION":14.77289918,"ECCENTRICITY":0.00023388,"INCLINATION":51.8995,"RA_OF_ASC_NODE":215.7529,"ARG_OF_PERICENTER":138.6205,"MEAN_ANOMALY":221.4934,"EPHEMERIS_TYPE":0,"CLASSIFICATION_TYPE":"U","NORAD_CAT_ID":64507,"ELEMENT_SET_NO":999,"REV_AT_EPOCH":4031,"BSTAR":0.00073016409,"MEAN_MOTION_DOT":5.016e-5,"MEAN_MOTION_DDOT":0},{"OBJECT_NAME":"YAOGAN-7 DEB","OBJECT_ID":"2009-069B","EPOCH":"2026-03-09T13:32:27.184992","MEAN_MOTION":14.33105644,"ECCENTRICITY":0.0208019,"INCLINATION":97.8383,"RA_OF_ASC_NODE":340.3535,"ARG_OF_PERICENTER":215.7943,"MEAN_ANOMALY":142.9153,"EPHEMERIS_TYPE":0,"CLASSIFICATION_TYPE":"U","NORAD_CAT_ID":38265,"ELEMENT_SET_NO":999,"REV_AT_EPOCH":83791,"BSTAR":0.00057987,"MEAN_MOTION_DOT":1.98e-5,"MEAN_MOTION_DDOT":0}]
